{
  "type": "FeatureCollection",
  "features": [
    {
      "type": "Feature",
      "properties": {
        "norad_id": 30526,
        "name": "FENGYUN 1C DEB",
        "group": "fengyun-1c-debris",
        "lat": 13.974235678407178,
        "lon": 65.7599682109261,
        "alt_km": 1134.9992411103158,
        "timestamp": "2025-12-11T20:41:15.357831+00:00",
        "meta_object_name": "FENGYUN 1C DEB",
        "meta_object_id": "1999-025AJQ",
        "meta_epoch": "2025-12-09T04:34:45.464736",
        "meta_mean_motion": 13.49895325,
        "meta_eccentricity": 0.0305945,
        "meta_inclination": 99.5476,
        "meta_ra_of_asc_node": 65.5968,
        "meta_arg_of_pericenter": 273.6009,
        "meta_mean_anomaly": 83.019,
        "meta_ephemeris_type": 0,
        "meta_classification_type": "U",
        "meta_norad_cat_id": 30526,
        "meta_element_set_no": 999,
        "meta_rev_at_epoch": 92610,
        "meta_bstar": 0.0018995751,
        "meta_mean_motion_dot": 1.568e-05,
        "meta_mean_motion_ddot": 0,
        "tle_line1": "1 30526U 99025AJQ 25343.19080399  .00001568  00000+0  18996-2 0  9991",
        "tle_line2": "2 30526  99.5476  65.5968 0305945 273.6009  83.0190 13.49895325926108"
      },
      "geometry": {
        "type": "Point",
        "coordinates": [
          65.7599682109261,
          13.974235678407178
        ]
      }
    },
    {
      "type": "Feature",
      "properties": {
        "norad_id": 30527,
        "name": "FENGYUN 1C DEB",
        "group": "fengyun-1c-debris",
        "lat": -15.671907248561265,
        "lon": 32.109147073654036,
        "alt_km": 1271.2467134452609,
        "timestamp": "2025-12-11T20:41:15.357841+00:00",
        "meta_object_name": "FENGYUN 1C DEB",
        "meta_object_id": "1999-025AJR",
        "meta_epoch": "2025-12-11T14:21:59.860800",
        "meta_mean_motion": 13.31028215,
        "meta_eccentricity": 0.04132148,
        "meta_inclination": 100.0642,
        "meta_ra_of_asc_node": 28.9952,
        "meta_arg_of_pericenter": 229.1858,
        "meta_mean_anomaly": 289.2917,
        "meta_ephemeris_type": 0,
        "meta_classification_type": "U",
        "meta_norad_cat_id": 30527,
        "meta_element_set_no": 999,
        "meta_rev_at_epoch": 91341,
        "meta_bstar": 0.0022120542,
        "meta_mean_motion_dot": 1.641e-05,
        "meta_mean_motion_ddot": 0,
        "tle_line1": "1 30527U 99025AJR 25345.59860950  .00001641  00000+0  22121-2 0  9994",
        "tle_line2": "2 30527 100.0642  28.9952 0413214 229.1858 289.2917 13.31028215913419"
      },
      "geometry": {
        "type": "Point",
        "coordinates": [
          32.109147073654036,
          -15.671907248561265
        ]
      }
    },
    {
      "type": "Feature",
      "properties": {
        "norad_id": 30528,
        "name": "FENGYUN 1C DEB",
        "group": "fengyun-1c-debris",
        "lat": 71.42460783374581,
        "lon": -170.00803945054116,
        "alt_km": 934.2897177929653,
        "timestamp": "2025-12-11T20:41:15.357851+00:00",
        "meta_object_name": "FENGYUN 1C DEB",
        "meta_object_id": "1999-025AJS",
        "meta_epoch": "2025-12-11T02:25:47.462592",
        "meta_mean_motion": 14.13490024,
        "meta_eccentricity": 0.0143331,
        "meta_inclination": 98.238,
        "meta_ra_of_asc_node": 214.8275,
        "meta_arg_of_pericenter": 230.6989,
        "meta_mean_anomaly": 294.4473,
        "meta_ephemeris_type": 0,
        "meta_classification_type": "U",
        "meta_norad_cat_id": 30528,
        "meta_element_set_no": 999,
        "meta_rev_at_epoch": 97114,
        "meta_bstar": 0.00051055665,
        "meta_mean_motion_dot": 1.02e-05,
        "meta_mean_motion_ddot": 0,
        "tle_line1": "1 30528U 99025AJS 25345.10124378  .00001020  00000+0  51056-3 0  9990",
        "tle_line2": "2 30528  98.2380 214.8275 0143331 230.6989 294.4473 14.13490024971144"
      },
      "geometry": {
        "type": "Point",
        "coordinates": [
          -170.00803945054116,
          71.42460783374581
        ]
      }
    },
    {
      "type": "Feature",
      "properties": {
        "norad_id": 30529,
        "name": "FENGYUN 1C DEB",
        "group": "fengyun-1c-debris",
        "lat": 67.47980621758053,
        "lon": -113.27632201762253,
        "alt_km": 1141.9446976188829,
        "timestamp": "2025-12-11T20:41:15.357861+00:00",
        "meta_object_name": "FENGYUN 1C DEB",
        "meta_object_id": "1999-025AJT",
        "meta_epoch": "2025-12-06T17:47:03.624288",
        "meta_mean_motion": 13.71588709,
        "meta_eccentricity": 0.02311835,
        "meta_inclination": 98.4889,
        "meta_ra_of_asc_node": 263.2998,
        "meta_arg_of_pericenter": 238.5675,
        "meta_mean_anomaly": 119.2686,
        "meta_ephemeris_type": 0,
        "meta_classification_type": "U",
        "meta_norad_cat_id": 30529,
        "meta_element_set_no": 999,
        "meta_rev_at_epoch": 93926,
        "meta_bstar": 0.001633705,
        "meta_mean_motion_dot": 1.743e-05,
        "meta_mean_motion_ddot": 0,
        "tle_line1": "1 30529U 99025AJT 25340.74101417  .00001743  00000+0  16337-2 0  9999",
        "tle_line2": "2 30529  98.4889 263.2998 0231183 238.5675 119.2686 13.71588709939261"
      },
      "geometry": {
        "type": "Point",
        "coordinates": [
          -113.27632201762253,
          67.47980621758053
        ]
      }
    },
    {
      "type": "Feature",
      "properties": {
        "norad_id": 30530,
        "name": "FENGYUN 1C DEB",
        "group": "fengyun-1c-debris",
        "lat": -19.839644128605695,
        "lon": -158.801068486253,
        "alt_km": 738.5668919346554,
        "timestamp": "2025-12-11T20:41:15.357871+00:00",
        "meta_object_name": "FENGYUN 1C DEB",
        "meta_object_id": "1999-025AJU",
        "meta_epoch": "2025-12-11T01:31:26.271264",
        "meta_mean_motion": 14.36778846,
        "meta_eccentricity": 0.01001429,
        "meta_inclination": 98.3967,
        "meta_ra_of_asc_node": 23.4749,
        "meta_arg_of_pericenter": 141.7669,
        "meta_mean_anomaly": 249.4831,
        "meta_ephemeris_type": 0,
        "meta_classification_type": "U",
        "meta_norad_cat_id": 30530,
        "meta_element_set_no": 999,
        "meta_rev_at_epoch": 98761,
        "meta_bstar": 0.00035243926,
        "meta_mean_motion_dot": 1.058e-05,
        "meta_mean_motion_ddot": 0,
        "tle_line1": "1 30530U 99025AJU 25345.06349851  .00001058  00000+0  35244-3 0  9995",
        "tle_line2": "2 30530  98.3967  23.4749 0100142 141.7669 249.4831 14.36778846987612"
      },
      "geometry": {
        "type": "Point",
        "coordinates": [
          -158.801068486253,
          -19.839644128605695
        ]
      }
    },
    {
      "type": "Feature",
      "properties": {
        "norad_id": 30531,
        "name": "FENGYUN 1C DEB",
        "group": "fengyun-1c-debris",
        "lat": 22.259505790402727,
        "lon": -3.278734223450863,
        "alt_km": 674.553129275544,
        "timestamp": "2025-12-11T20:41:15.357881+00:00",
        "meta_object_name": "FENGYUN 1C DEB",
        "meta_object_id": "1999-025AJV",
        "meta_epoch": "2025-12-11T11:45:22.190688",
        "meta_mean_motion": 14.61765638,
        "meta_eccentricity": 0.00280038,
        "meta_inclination": 102.3104,
        "meta_ra_of_asc_node": 171.0416,
        "meta_arg_of_pericenter": 209.5259,
        "meta_mean_anomaly": 150.4346,
        "meta_ephemeris_type": 0,
        "meta_classification_type": "U",
        "meta_norad_cat_id": 30531,
        "meta_element_set_no": 999,
        "meta_rev_at_epoch": 97677,
        "meta_bstar": 0.0094168406,
        "meta_mean_motion_dot": 0.00047508,
        "meta_mean_motion_ddot": 0,
        "tle_line1": "1 30531U 99025AJV 25345.48984017  .00047508  00000+0  94168-2 0  9990",
        "tle_line2": "2 30531 102.3104 171.0416 0028003 209.5259 150.4346 14.61765638976776"
      },
      "geometry": {
        "type": "Point",
        "coordinates": [
          -3.278734223450863,
          22.259505790402727
        ]
      }
    },
    {
      "type": "Feature",
      "properties": {
        "norad_id": 30532,
        "name": "FENGYUN 1C DEB",
        "group": "fengyun-1c-debris",
        "lat": 66.36633308326697,
        "lon": 14.947524395246324,
        "alt_km": 501.3462080531108,
        "timestamp": "2025-12-11T20:41:15.357891+00:00",
        "meta_object_name": "FENGYUN 1C DEB",
        "meta_object_id": "1999-025AJW",
        "meta_epoch": "2025-12-11T01:29:24.724608",
        "meta_mean_motion": 15.24304611,
        "meta_eccentricity": 0.00253028,
        "meta_inclination": 96.963,
        "meta_ra_of_asc_node": 30.4217,
        "meta_arg_of_pericenter": 263.2468,
        "meta_mean_anomaly": 96.5891,
        "meta_ephemeris_type": 0,
        "meta_classification_type": "U",
        "meta_norad_cat_id": 30532,
        "meta_element_set_no": 999,
        "meta_rev_at_epoch": 97662,
        "meta_bstar": 0.016538621,
        "meta_mean_motion_dot": 0.00430969,
        "meta_mean_motion_ddot": 0,
        "tle_line1": "1 30532U 99025AJW 25345.06209172  .00430969  00000+0  16539-1 0  9999",
        "tle_line2": "2 30532  96.9630  30.4217 0025302 263.2468  96.5891 15.24304611976623"
      },
      "geometry": {
        "type": "Point",
        "coordinates": [
          14.947524395246324,
          66.36633308326697
        ]
      }
    }
  ]
}